LEMUR-2-FINNIAN         
1 66782U 25276DX  26159.74353463  .00007148  00000+0  57464-3 0  9997
2 66782  97.5259 231.0052 0008577 114.2544 245.9577 15.00271962 18730
LEMUR-2-STARLIGHT       
1 66783U 25276DY  26159.15835773  .00005428  00000+0  45216-3 0  9993
2 66783  97.5274 230.1048 0015352 153.7795 206.4209 14.98948334 28845
LEMUR-2-TARTIFLETTE     
1 66784U 25276DZ  26159.75779183  .00007489  00000+0  62154-3 0  9991
2 66784  97.5278 230.6893 0013941 158.1116 202.0706 14.98982216 28932
LEMUR-2-VUKASIN         
1 66785U 25276EA  26160.02550536  .00005248  00000+0  42333-3 0  9991
2 66785  97.5309 231.2249 0006287 143.5710 216.5943 15.00276292 28929
LEMUR-2-HOTSPUR-TOM     
1 66786U 25276EB  26160.15025507  .00006265  00000+0  52223-3 0  9990
2 66786  97.5255 231.0522 0015359 152.0796 208.1254 14.98860681 28920
LEMUR-2-MYRA            
1 66787U 25276EC  26160.18964288  .00005725  00000+0  46214-3 0  9995
2 66787  97.5219 231.3342 0015611 168.0041 192.1558 15.00135130 29013
LEMUR-2 FIKRETDENGIZ    
1 67363U 26004A   26159.99920700  .00003500  00000+0  38447-3 0  9992
2 67363  97.8015 158.6834 0009420 156.8879 203.2764 14.88265150 22065
TWILIGHT-1 OBJECT B     
1 67364U 26004B   26159.88580287  .00002042  00000+0  23015-3 0  9998
2 67364  97.8059 158.5905 0009411 148.3728 211.8056 14.87674724 22059
LEMUR-2-MARIO-SOUSA     
1 67365U 26004C   26159.98384466  .00004030  00000+0  43981-3 0  9994
2 67365  97.7991 158.6649 0008964 157.5449 202.6161 14.88448951 22073
LEMUR-2-SONNENBLUME     
1 67367U 26004E   26159.98120884  .00002475  00000+0  27359-3 0  9990
2 67367  97.7982 158.6498 0008485 159.2931 200.8631 14.88274696 22075
LEMUR-2-WOBLER          
1 67368U 26004F   26159.97576804  .00003460  00000+0  37833-3 0  9990
2 67368  97.8039 158.7586 0008928 148.9131 211.2616 14.88462211 22079
LEMUR-2-GRAM-E-SUE      
1 67370U 26004H   26159.22672773  .00002464  00000+0  27137-3 0  9992
2 67370  97.7973 157.9220 0007491 161.8793 198.2692 14.88432151 21961
LEMUR-2-KATIE           
1 67387U 26004AA  26159.76068054  .00005027  00000+0  52680-3 0  9999
2 67387  97.8037 158.8796 0004729 110.2219 249.9508 14.89997583 22058
LEMUR-2-HCS-BAZUS       
1 67388U 26004AB  26159.75979161  .00005493  00000+0  57517-3 0  9990
2 67388  97.8026 158.8607 0004354 105.5742 254.5957 14.89994072 22050
